{"epoch":1784710044,"count":18256,"objects":[{"id":"59598","name":"GALILEO 29 (10C)","type":"PAYLOAD","l1":"1 59598U 24079A   26200.37717925 -.00000037  00000-0  00000-0 0  9990","l2":"2 59598  55.1387 100.1800 0000435 337.1149 204.2884  1.70473943 13861"},{"id":"59600","name":"GALILEO 30 (10E)","type":"PAYLOAD","l1":"1 59600U 24079C   26199.09194253 -.00000031  00000-0  00000-0 0  9997","l2":"2 59600  55.1327 100.2145 0002950  69.2435 290.8270  1.70473877 13896"},{"id":"61182","name":"GALILEO 32 (137)","type":"PAYLOAD","l1":"1 61182U 24167A   26202.36717075  .00000065  00000-0  00000+0 0  9996","l2":"2 61182  55.1779 220.3751 0006380 233.5892 192.1922  1.70474219 11466"},{"id":"61183","name":"GALILEO 31 (10D)","type":"PAYLOAD","l1":"1 61183U 24167B   26202.62611696  .00000067  00000-0  00000-0 0  9991","l2":"2 61183  55.1767 220.3752 0003187 239.5166  76.5193  1.70474203 11432"},{"id":"61186","name":"BEIDOU 3M25","type":"PAYLOAD","l1":"1 61186U 24168B   26202.30443009 -.00000101  00000-0  00000-0 0  9991","l2":"2 61186  54.4404 301.0557 0003467 291.4678  80.3433  1.86230267 12428"},{"id":"61187","name":"BEIDOU 3M27","type":"PAYLOAD","l1":"1 61187U 24168C   26200.42214709 -.00000096  00000-0  00000-0 0  9999","l2":"2 61187  54.4377 301.1038 0000858  40.8164 284.0569  1.86230211  9855"},{"id":"62339","name":"NAVSTAR 83 (USA 440)","type":"PAYLOAD","l1":"1 62339U 24242A   26200.72170847 -.00000109  00000-0  00000-0 0  9994","l2":"2 62339  54.8338 332.8621 0017996   4.3540 337.1791  2.00572353 11908"},{"id":"62876","name":"QZS-6","type":"PAYLOAD","l1":"1 62876U 25023A   26202.66580109 -.00000231  00000-0  00000-0 0  9995","l2":"2 62876   0.0157  49.4360 0002017  65.2669 154.8936  1.00274155  5291"},{"id":"63130","name":"COSMOS 2584(GLONASS)","type":"PAYLOAD","l1":"1 63130U 25042A   26202.39608968 -.00000053  00000-0  00000-0 0  9996","l2":"2 63130  65.1045  71.6393 0005389 207.4156 152.6221  2.13103797 10772"},{"id":"64202","name":"NAVSTAR 84 (USA 545)","type":"PAYLOAD","l1":"1 64202U 25116A   26202.24475308 -.00000088  00000-0  00000-0 0  9991","l2":"2 64202  55.2580  29.7605 0008411 339.2727 205.1759  2.00573612  8550"},{"id":"65590","name":"COSMOS 2595 (GLONASS)","type":"PAYLOAD","l1":"1 65590U 25206B   26202.28482619 -.00000089  00000-0  00000-0 0  9990","l2":"2 65590  64.6123 313.7979 0011250 306.9983  83.6515  2.13101004  6641"},{"id":"67160","name":"GALILEO 33 (138)","type":"PAYLOAD","l1":"1 67160U 25302A   26202.24299425 -.00000046  00000-0  00000-0 0  9992","l2":"2 67160  54.3550 101.1603 0001157 153.0101  24.4101  1.70474103  3700"},{"id":"67162","name":"GALILEO 34 (139)","type":"PAYLOAD","l1":"1 67162U 25302C   26201.33878943 -.00000042  00000-0  00000-0 0  9997","l2":"2 67162  54.3566 101.1849 0001862 324.8516 197.7380  1.70474060  3741"},{"id":"67588","name":"NAVSTAR 85 (USA 581)","type":"PAYLOAD","l1":"1 67588U 26017A   26201.10242183 -.00000054  00000-0  00000-0 0  9992","l2":"2 67588  55.1095  87.4339 0021306 260.2926  99.5185  2.00570435432275"},{"id":"68791","name":"NAVSTAR 86 (USA 585)","type":"PAYLOAD","l1":"1 68791U 26087A   26201.82058642  .00000074  00000-0  00000-0 0  9991","l2":"2 68791  54.9613 206.4574 0020524 106.0114 258.1289  2.00573215  1512"}]}